STARLINK-4714           
1 53704U 22107E   26068.71241934 -.00000347  00000+0 -37016-5 0  9991
2 53704  53.2168 244.2748 0001272 102.7810 257.3324 15.08835774194691
LEMUR-2-LANGER2SPACE    
1 63358U 25061H   26068.93705617  .00006238  00000+0  35148-3 0  9991
2 63358  97.5541  45.3892 0015335 237.4180 122.5571 15.13463796 52602
